ONEWEB-0685             
1 54679U 22166AP  24205.41063818  .00000026  00000+0  32202-4 0  9992
2 54679  87.9284  22.0958 0002096  88.6896 271.4478 13.21826827 79761
ONEWEB-0712             
1 54680U 22166AQ  24205.38560987  .00000015  00000+0  47789-5 0  9994
2 54680  87.9114   6.9081 0001512  79.7752 280.3550 13.17105202 80761
ONEWEB-0714             
1 54681U 22166AR  24205.41694414 -.00000051  00000+0 -15619-3 0  9999
2 54681  87.9284  22.0812 0002132  87.4343 272.7035 13.21823989 79880
ONEWEB-0532             
1 55140U 23004A   24205.58388074  .00000034  00000+0  55487-4 0  9999
2 55140  87.9190 143.9701 0002113  95.1765 264.9608 13.17648070 76247
ONEWEB-0533             
1 55141U 23004B   24205.54674774  .00000480  00000+0  12997-2 0  9993
2 55141  87.8960 128.7767 0002076  77.3496 282.7864 13.12443696 77072
ONEWEB-0541             
1 55142U 23004C   24205.56836085  .00000385  00000+0  10493-2 0  9994
2 55142  87.8985 159.1165 0002073  82.8887 277.2477 13.11415274 75035
ONEWEB-0543             
1 55143U 23004D   24205.50128057  .00000084  00000+0  18104-3 0  9996
2 55143  87.9138 113.6472 0002019  66.6098 293.5247 13.18685602 78273
ONEWEB-0544             
1 55144U 23004E   24205.49494874  .00000069  00000+0  14317-3 0  9993
2 55144  87.9139 113.6339 0001821  78.3758 281.7579 13.18684912 78270
